      2.10          N: GNSS NAV DATA                        RINEX VERSION / TYPE
fic2rin                                 03/23/2023 00:17:39 PGM / RUN BY / DATE
                                                            END OF HEADER
11 23  3 22 10  0  0.0 -.137940980494D-03 -.117097442853D-10  .000000000000D+00
     .128000000000D+03  .368750000000D+02  .397445126613D-08 -.311243104794D+01
     .203400850296D-05  .748198130168D-03  .141896307468D-04  .515372651672D+04
     .295200000000D+06  .186264514923D-07 -.272878114007D+01  .186264514923D-08
     .965304471389D+00  .107375000000D+03 -.273629642088D+01 -.776496629916D-08
     .403588239642D-09  .100000000000D+01  .225400000000D+04  .000000000000D+00
     .240000000000D+01  .000000000000D+00 -.884756445885D-08  .384000000000D+03
     .288000000000D+06  .400000000000D+01
18 23  3 22 10  0  0.0 -.190448015928D-03 -.164845914696D-10  .000000000000D+00
     .106000000000D+03  .139062500000D+02  .384516016636D-08  .179439192543D+01
     .761821866035D-06  .302086048760D-02  .141374766827D-04  .515369169998D+04
     .295200000000D+06 -.130385160446D-07 -.276130431349D+01  .409781932831D-07
     .973822458197D+00  .112625000000D+03 -.312818890368D+01 -.768174854709D-08
     .261082303697D-09  .100000000000D+01  .225400000000D+04  .000000000000D+00
     .240000000000D+01  .000000000000D+00 -.838190317154D-08  .874000000000D+03
     .288000000000D+06  .400000000000D+01
28 23  3 22 10  0  0.0  .492716208100D-04  .909494701773D-11  .000000000000D+00
     .172000000000D+03  .192812500000D+02  .427732102473D-08 -.539906287207D+00
     .122003257275D-05  .905581517145D-03  .134725123644D-04  .515365408707D+04
     .295200000000D+06  .745058059692D-08  .326432184274D+00 -.242143869400D-07
     .962112607966D+00  .118093750000D+03  .171038472517D+01 -.787854245863D-08
     .292869342041D-10  .100000000000D+01  .225400000000D+04  .000000000000D+00
     .240000000000D+01  .000000000000D+00 -.139698386192D-08  .684000000000D+03
     .288000000000D+06  .400000000000D+01
22 23  3 22 10  0  0.0  .449949409813D-03  .716227077646D-11  .000000000000D+00
     .700000000000D+02 -.102093750000D+03  .466698011274D-08 -.264200957616D+01
    -.519677996635D-05  .141454924596D-01  .766478478909D-05  .515361063385D+04
     .295200000000D+06  .230967998505D-06 -.602142830694D+00  .745058059692D-08
     .962581242070D+00  .228468750000D+03 -.181904473271D+01 -.802569144512D-08
    -.475734101949D-09  .100000000000D+01  .225400000000D+04  .000000000000D+00
     .240000000000D+01  .630000000000D+02 -.791624188423D-08  .700000000000D+02
     .288000000000D+06  .400000000000D+01
29 23  3 22  9 59 44.0 -.592011958361D-03 -.181898940355D-11  .000000000000D+00
     .800000000000D+01 -.102531250000D+03  .426553481950D-08 -.232704651894D+01
    -.528432428837D-05  .230525108054D-02  .774860382080D-05  .515356108856D+04
     .295184000000D+06  .335276126862D-07  .253253534206D+01  .391155481339D-07
     .977331349134D+00  .238843750000D+03  .238563436480D+01 -.808390815579D-08
    -.581095633537D-09  .100000000000D+01  .225400000000D+04  .000000000000D+00
     .240000000000D+01  .000000000000D+00 -.102445483208D-07  .800000000000D+01
     .289380000000D+06  .400000000000D+01
11 23  3 22 10 44 32.0 -.137973111123D-03 -.117097442853D-10  .000000000000D+00
     .129000000000D+03  .416562500000D+02  .391980613280D-08 -.272252214747D+01
     .218115746975D-05  .747586833313D-03  .141449272633D-04  .515372766113D+04
     .297872000000D+06  .372529029846D-08 -.272880174820D+01  .447034835815D-07
     .965305624168D+00  .108875000000D+03 -.273648520168D+01 -.773853662683D-08
     .387516141603D-09  .100000000000D+01  .225400000000D+04  .000000000000D+00
     .240000000000D+01  .000000000000D+00 -.884756445885D-08  .385000000000D+03
     .290700000000D+06  .400000000000D+01
8  23  3 22  9 59 44.0 -.114127993584D-03 -.181898940355D-11  .000000000000D+00
     .700000000000D+01 -.981562500000D+02  .459019119989D-08 -.241641630875D+01
    -.511296093464D-05  .842732540332D-02  .677816569805D-05  .515367374611D+04
     .295184000000D+06 -.707805156708D-07  .243061015146D+01 -.126659870148D-06
     .959499894793D+00  .250468750000D+03  .240104561867D+00 -.825141513313D-08
    -.438946855327D-09  .100000000000D+01  .225400000000D+04  .000000000000D+00
     .240000000000D+01  .000000000000D+00  .512227416039D-08  .700000000000D+01
     .291870000000D+06  .400000000000D+01
20 23  3 22  9 59 44.0  .443508848548D-03 -.227373675443D-11  .000000000000D+00
     .250000000000D+02  .815312500000D+02  .519664503255D-08  .250271878506D+01
     .427663326263D-05  .431439245585D-02  .544264912605D-05  .515377024269D+04
     .295184000000D+06 -.838190317154D-07 -.189928981238D+01 -.279396772385D-07
     .947221911549D+00  .264343750000D+03 -.289299714110D+01 -.856142804641D-08
     .615382776020D-09  .100000000000D+01  .225400000000D+04  .000000000000D+00
     .240000000000D+01  .000000000000D+00 -.838190317154D-08  .250000000000D+02
     .294720000000D+06  .400000000000D+01
25 23  3 22  9 59 44.0  .429661944509D-03  .295585778076D-11  .000000000000D+00
     .100000000000D+01  .720625000000D+02  .517664419944D-08  .136799075876D+00
     .382214784622D-05  .111812686082D-01  .407174229622D-05  .515375550652D+04
     .295184000000D+06 -.108033418655D-06  .139753661886D+01  .132247805595D-06
     .953381064377D+00  .296093750000D+03  .104279637142D+01 -.881643866863D-08
     .298226708054D-09  .100000000000D+01  .225400000000D+04  .000000000000D+00
     .240000000000D+01  .000000000000D+00  .558793544769D-08  .100000000000D+01
     .294900000000D+06  .400000000000D+01
8  23  3 22 11 59 44.0 -.114141497761D-03 -.181898940355D-11  .000000000000D+00
     .680000000000D+02 -.100718750000D+03  .465090801470D-08 -.136652350021D+01
    -.528059899807D-05  .842810480390D-02  .571832060814D-05  .515366891098D+04
     .302384000000D+06  .409781932831D-07  .243055086817D+01 -.223517417908D-06
     .959496686614D+00  .268593750000D+03  .240394620487D+00 -.828391648694D-08
    -.492520515456D-09  .100000000000D+01  .225400000000D+04  .000000000000D+00
     .240000000000D+01  .000000000000D+00  .512227416039D-08  .680000000000D+02
     .295200000000D+06  .400000000000D+01
29 23  3 22 11 59 44.0 -.592024996877D-03 -.181898940355D-11  .000000000000D+00
     .900000000000D+01 -.995000000000D+02  .422339020687D-08 -.127668425998D+01
    -.523589551449D-05  .230548274703D-02  .793486833572D-05  .515356147194D+04
     .302384000000D+06 -.111758708954D-07  .253247727152D+01  .614672899246D-07
     .977327176891D+00  .235500000000D+03  .238552010797D+01 -.806640742682D-08
    -.601810782120D-09  .100000000000D+01  .225400000000D+04  .000000000000D+00
     .240000000000D+01  .000000000000D+00 -.102445483208D-07  .900000000000D+01
     .295200000000D+06  .400000000000D+01
20 23  3 22 11 59 44.0  .443492084742D-03 -.227373675443D-11  .000000000000D+00
     .260000000000D+02  .814687500000D+02  .508771192362D-08 -.273039627916D+01
     .424869358540D-05  .431346299592D-02  .524334609509D-05  .515377202225D+04
     .302384000000D+06 -.745058059692D-08 -.189935114961D+01 -.391155481339D-07
     .947226655792D+00  .271500000000D+03 -.289294177404D+01 -.849428239239D-08
     .617168564691D-09  .100000000000D+01  .225400000000D+04  .000000000000D+00
     .240000000000D+01  .000000000000D+00 -.838190317154D-08  .260000000000D+02
     .295200000000D+06  .400000000000D+01
